[{"OBJECT_NAME":"SHIYAN-21 (SY-21)","OBJECT_ID":"2022-172A","EPOCH":"2026-03-09T23:40:42.191616","MEAN_MOTION":15.28197132,"ECCENTRICITY":0.00206059,"INCLINATION":35.9768,"RA_OF_ASC_NODE":332.6944,"ARG_OF_PERICENTER":79.3933,"MEAN_ANOMALY":280.9121,"EPHEMERIS_TYPE":0,"CLASSIFICATION_TYPE":"U","NORAD_CAT_ID":54752,"ELEMENT_SET_NO":999,"REV_AT_EPOCH":18050,"BSTAR":0.00041186164,"MEAN_MOTION_DOT":0.00011616,"MEAN_MOTION_DDOT":0},{"OBJECT_NAME":"STARLINK-31519","OBJECT_ID":"2024-074N","EPOCH":"2026-03-09T03:13:56.527392","MEAN_MOTION":15.27560711,"ECCENTRICITY":0.00015156,"INCLINATION":43.0041,"RA_OF_ASC_NODE":346.301,"ARG_OF_PERICENTER":297.9835,"MEAN_ANOMALY":62.0863,"EPHEMERIS_TYPE":0,"CLASSIFICATION_TYPE":"U","NORAD_CAT_ID":59546,"ELEMENT_SET_NO":999,"REV_AT_EPOCH":10593,"BSTAR":-0.00037858741,"MEAN_MOTION_DOT":-0.00010659,"MEAN_MOTION_DDOT":0}]
